{
  "norad_id": 66206,
  "name": "STARLINK-35748",
  "history": [
    {
      "epoch": "2026-03-28T12:42:04.345344",
      "apogee_km": 476.02583182825947,
      "perigee_km": 474.4363986949684,
      "latitude_deg": -46.76375223066623,
      "longitude_deg": 131.40482816006988,
      "semi_major_axis_km": 6853.368115261614,
      "eccentricity": 0.00011596,
      "inclination_deg": 53.1596,
      "raan_deg": 142.4303,
      "arg_perigee_deg": 75.2953,
      "mean_anomaly_deg": 284.8176,
      "mean_motion_rev_day": 15.30194626
    }
  ]
}